{
  "type": "FeatureCollection",
  "features": [
    {
      "type": "Feature",
      "properties": {
        "norad_id": 31307,
        "name": "GALAXY 17 (G-17)",
        "group": "intelsat",
        "lat": -2.460497498943789,
        "lon": -18.9638953322584,
        "alt_km": 35787.21576804676,
        "timestamp": "2025-12-15T22:44:28.591372+00:00",
        "meta_object_name": "GALAXY 17 (G-17)",
        "meta_object_id": "2007-016B",
        "meta_epoch": "2025-12-15T06:08:04.894080",
        "meta_mean_motion": 1.00272279,
        "meta_eccentricity": 0.00056384,
        "meta_inclination": 2.5064,
        "meta_ra_of_asc_node": 82.2573,
        "meta_arg_of_pericenter": 166.4872,
        "meta_mean_anomaly": 202.4623,
        "meta_ephemeris_type": 0,
        "meta_classification_type": "U",
        "meta_norad_cat_id": 31307,
        "meta_element_set_no": 999,
        "meta_rev_at_epoch": 6796,
        "meta_bstar": 0,
        "meta_mean_motion_dot": -1.87e-06,
        "meta_mean_motion_ddot": 0,
        "tle_line1": "1 31307U 07016B   25349.25561220 -.00000187  00000+0  00000+0 0  9999",
        "tle_line2": "2 31307   2.5064  82.2573 0005638 166.4872 202.4623  1.00272279 67963"
      },
      "geometry": {
        "type": "Point",
        "coordinates": [
          -18.9638953322584,
          -2.460497498943789
        ]
      }
    },
    {
      "type": "Feature",
      "properties": {
        "norad_id": 31862,
        "name": "DIRECTV 10",
        "group": "intelsat",
        "lat": -1.543491049280393e-05,
        "lon": -36.83218195650983,
        "alt_km": 35786.68612637433,
        "timestamp": "2025-12-15T22:44:28.591385+00:00",
        "meta_object_name": "DIRECTV 10",
        "meta_object_id": "2007-032A",
        "meta_epoch": "2025-12-14T23:12:12.472128",
        "meta_mean_motion": 1.00271392,
        "meta_eccentricity": 2.968e-05,
        "meta_inclination": 0.0094,
        "meta_ra_of_asc_node": 227.6854,
        "meta_arg_of_pericenter": 342.3878,
        "meta_mean_anomaly": 119.0703,
        "meta_ephemeris_type": 0,
        "meta_classification_type": "U",
        "meta_norad_cat_id": 31862,
        "meta_element_set_no": 999,
        "meta_rev_at_epoch": 4374,
        "meta_bstar": 0,
        "meta_mean_motion_dot": -8.3e-07,
        "meta_mean_motion_ddot": 0,
        "tle_line1": "1 31862U 07032A   25348.96681102 -.00000083  00000+0  00000+0 0  9997",
        "tle_line2": "2 31862   0.0094 227.6854 0000296 342.3878 119.0703  1.00271392 43745"
      },
      "geometry": {
        "type": "Point",
        "coordinates": [
          -36.83218195650983,
          -1.543491049280393e-05
        ]
      }
    },
    {
      "type": "Feature",
      "properties": {
        "norad_id": 32253,
        "name": "INTELSAT 11 (IS-11)",
        "group": "intelsat",
        "lat": -0.9051501733165731,
        "lon": -82.45704109201462,
        "alt_km": 36099.80076965084,
        "timestamp": "2025-12-15T22:44:28.591397+00:00",
        "meta_object_name": "INTELSAT 11 (IS-11)",
        "meta_object_id": "2007-044B",
        "meta_epoch": "2025-12-15T08:42:38.638944",
        "meta_mean_motion": 0.99050129,
        "meta_eccentricity": 0.00086982,
        "meta_inclination": 3.0869,
        "meta_ra_of_asc_node": 80.9479,
        "meta_arg_of_pericenter": 166.9846,
        "meta_mean_anomaly": 181.127,
        "meta_ephemeris_type": 0,
        "meta_classification_type": "U",
        "meta_norad_cat_id": 32253,
        "meta_element_set_no": 999,
        "meta_rev_at_epoch": 6662,
        "meta_bstar": 0,
        "meta_mean_motion_dot": 5.6e-07,
        "meta_mean_motion_ddot": 0,
        "tle_line1": "1 32253U 07044B   25349.36294721  .00000056  00000+0  00000+0 0  9996",
        "tle_line2": "2 32253   3.0869  80.9479 0008698 166.9846 181.1270  0.99050129 66626"
      },
      "geometry": {
        "type": "Point",
        "coordinates": [
          -82.45704109201462,
          -0.9051501733165731
        ]
      }
    },
    {
      "type": "Feature",
      "properties": {
        "norad_id": 32388,
        "name": "HORIZONS-2",
        "group": "intelsat",
        "lat": -2.1246336495845335,
        "lon": -7.786680993386647,
        "alt_km": 35782.49324909243,
        "timestamp": "2025-12-15T22:44:28.591408+00:00",
        "meta_object_name": "HORIZONS-2",
        "meta_object_id": "2007-063B",
        "meta_epoch": "2025-12-15T06:11:19.582656",
        "meta_mean_motion": 1.00273576,
        "meta_eccentricity": 0.00046137,
        "meta_inclination": 2.1279,
        "meta_ra_of_asc_node": 82.9382,
        "meta_arg_of_pericenter": 189.4821,
        "meta_mean_anomaly": 190.7774,
        "meta_ephemeris_type": 0,
        "meta_classification_type": "U",
        "meta_norad_cat_id": 32388,
        "meta_element_set_no": 999,
        "meta_rev_at_epoch": 6597,
        "meta_bstar": 0,
        "meta_mean_motion_dot": -2.34e-06,
        "meta_mean_motion_ddot": 0,
        "tle_line1": "1 32388U 07063B   25349.25786554 -.00000234  00000+0  00000+0 0  9993",
        "tle_line2": "2 32388   2.1279  82.9382 0004613 189.4821 190.7774  1.00273576 65979"
      },
      "geometry": {
        "type": "Point",
        "coordinates": [
          -7.786680993386647,
          -2.1246336495845335
        ]
      }
    },
    {
      "type": "Feature",
      "properties": {
        "norad_id": 32729,
        "name": "DIRECTV 11",
        "group": "intelsat",
        "lat": 0.007798163347098415,
        "lon": -33.23429483396422,
        "alt_km": 35787.83036603669,
        "timestamp": "2025-12-15T22:44:28.591421+00:00",
        "meta_object_name": "DIRECTV 11",
        "meta_object_id": "2008-013A",
        "meta_epoch": "2025-12-15T08:01:38.431776",
        "meta_mean_motion": 1.00270669,
        "meta_eccentricity": 3.538e-05,
        "meta_inclination": 0.0433,
        "meta_ra_of_asc_node": 163.0305,
        "meta_arg_of_pericenter": 0.1931,
        "meta_mean_anomaly": 302.2415,
        "meta_ephemeris_type": 0,
        "meta_classification_type": "U",
        "meta_norad_cat_id": 32729,
        "meta_element_set_no": 999,
        "meta_rev_at_epoch": 4375,
        "meta_bstar": 0,
        "meta_mean_motion_dot": -1.04e-06,
        "meta_mean_motion_ddot": 0,
        "tle_line1": "1 32729U 08013A   25349.33447259 -.00000104  00000+0  00000+0 0  9999",
        "tle_line2": "2 32729   0.0433 163.0305 0000353   0.1931 302.2415  1.00270669 43755"
      },
      "geometry": {
        "type": "Point",
        "coordinates": [
          -33.23429483396422,
          0.007798163347098415
        ]
      }
    },
    {
      "type": "Feature",
      "properties": {
        "norad_id": 32951,
        "name": "GALAXY 18 (G-18)",
        "group": "intelsat",
        "lat": -0.033804728438946025,
        "lon": -57.05013127535738,
        "alt_km": 35775.92020224658,
        "timestamp": "2025-12-15T22:44:28.591434+00:00",
        "meta_object_name": "GALAXY 18 (G-18)",
        "meta_object_id": "2008-024A",
        "meta_epoch": "2025-12-15T08:27:38.617056",
        "meta_mean_motion": 1.00271362,
        "meta_eccentricity": 0.00028339,
        "meta_inclination": 0.0232,
        "meta_ra_of_asc_node": 0.0013,
        "meta_arg_of_pericenter": 271.7521,
        "meta_mean_anomaly": 176.3969,
        "meta_ephemeris_type": 0,
        "meta_classification_type": "U",
        "meta_norad_cat_id": 32951,
        "meta_element_set_no": 999,
        "meta_rev_at_epoch": 4401,
        "meta_bstar": 0,
        "meta_mean_motion_dot": 0,
        "meta_mean_motion_ddot": 0,
        "tle_line1": "1 32951U 08024A   25349.35253029  .00000000  00000+0  00000+0 0  9994",
        "tle_line2": "2 32951   0.0232   0.0013 0002833 271.7521 176.3969  1.00271362 44016"
      },
      "geometry": {
        "type": "Point",
        "coordinates": [
          -57.05013127535738,
          -0.033804728438946025
        ]
      }
    },
    {
      "type": "Feature",
      "properties": {
        "norad_id": 33153,
        "name": "INTELSAT 25 (IS-25)",
        "group": "intelsat",
        "lat": -1.644933385517144,
        "lon": 34.52619718204058,
        "alt_km": 35799.62268893768,
        "timestamp": "2025-12-15T22:44:28.591446+00:00",
        "meta_object_name": "INTELSAT 25 (IS-25)",
        "meta_object_id": "2008-034A",
        "meta_epoch": "2025-12-15T06:23:18.435840",
        "meta_mean_motion": 1.00271452,
        "meta_eccentricity": 0.00048784,
        "meta_inclination": 2.2341,
        "meta_ra_of_asc_node": 82.6236,
        "meta_arg_of_pericenter": 182.2882,
        "meta_mean_anomaly": 243.5951,
        "meta_ephemeris_type": 0,
        "meta_classification_type": "U",
        "meta_norad_cat_id": 33153,
        "meta_element_set_no": 999,
        "meta_rev_at_epoch": 6385,
        "meta_bstar": 0,
        "meta_mean_motion_dot": -2.04e-06,
        "meta_mean_motion_ddot": 0,
        "tle_line1": "1 33153U 08034A   25349.26618560 -.00000204  00000+0  00000+0 0  9992",
        "tle_line2": "2 33153   2.2341  82.6236 0004878 182.2882 243.5951  1.00271452 63857"
      },
      "geometry": {
        "type": "Point",
        "coordinates": [
          34.52619718204058,
          -1.644933385517144
        ]
      }
    }
  ]
}